[{"OBJECT_NAME":"EXCITE","OBJECT_ID":"2018-099BP","EPOCH":"2026-03-09T16:45:15.060672","MEAN_MOTION":15.06036758,"ECCENTRICITY":0.0017626,"INCLINATION":97.4107,"RA_OF_ASC_NODE":111.3606,"ARG_OF_PERICENTER":337.4818,"MEAN_ANOMALY":22.5634,"EPHEMERIS_TYPE":0,"CLASSIFICATION_TYPE":"U","NORAD_CAT_ID":43819,"ELEMENT_SET_NO":999,"REV_AT_EPOCH":39677,"BSTAR":0.00019631388,"MEAN_MOTION_DOT":2.813e-5,"MEAN_MOTION_DDOT":0},{"OBJECT_NAME":"STARLINK-3324","OBJECT_ID":"2022-001M","EPOCH":"2026-03-09T13:46:28.333056","MEAN_MOTION":15.08829863,"ECCENTRICITY":0.0001018,"INCLINATION":53.217,"RA_OF_ASC_NODE":169.6439,"ARG_OF_PERICENTER":91.8443,"MEAN_ANOMALY":268.2665,"EPHEMERIS_TYPE":0,"CLASSIFICATION_TYPE":"U","NORAD_CAT_ID":50814,"ELEMENT_SET_NO":999,"REV_AT_EPOCH":23039,"BSTAR":-8.6429e-5,"MEAN_MOTION_DOT":-1.663e-5,"MEAN_MOTION_DDOT":0}]
