EXCITE                  
1 43819U 18099BP  26068.69809098  .00002813  00000+0  19631-3 0  9999
2 43819  97.4107 111.3606 0017626 337.4818  22.5634 15.06036758396774
STARLINK-3324           
1 50814U 22001M   26068.57393904 -.00001663  00000+0 -86429-4 0  9995
2 50814  53.2170 169.6439 0001018  91.8443 268.2665 15.08829863230397
